[{"OBJECT_NAME":"GRUS-1E","OBJECT_ID":"2021-022D","EPOCH":"2026-03-09T21:59:56.793984","MEAN_MOTION":14.99580708,"ECCENTRICITY":0.00128752,"INCLINATION":97.5572,"RA_OF_ASC_NODE":316.384,"ARG_OF_PERICENTER":314.1526,"MEAN_ANOMALY":45.8638,"EPHEMERIS_TYPE":0,"CLASSIFICATION_TYPE":"U","NORAD_CAT_ID":47935,"ELEMENT_SET_NO":999,"REV_AT_EPOCH":27107,"BSTAR":0.00017718433,"MEAN_MOTION_DOT":2.125e-5,"MEAN_MOTION_DDOT":0},{"OBJECT_NAME":"STARLINK-5919","OBJECT_ID":"2023-037P","EPOCH":"2026-03-09T21:53:55.511520","MEAN_MOTION":14.9830823,"ECCENTRICITY":0.00026639,"INCLINATION":70.0036,"RA_OF_ASC_NODE":303.7784,"ARG_OF_PERICENTER":210.5626,"MEAN_ANOMALY":149.5378,"EPHEMERIS_TYPE":0,"CLASSIFICATION_TYPE":"U","NORAD_CAT_ID":55927,"ELEMENT_SET_NO":999,"REV_AT_EPOCH":16352,"BSTAR":-4.2850414e-5,"MEAN_MOTION_DOT":-6.04e-6,"MEAN_MOTION_DDOT":0}]
